{"type": "FeatureCollection", "features": [ {"type": "Feature", "properties": {"norad_id": 66482, "name": "STARLINK-35648", "group": "last-30-days", "lat": -24.43630174382811, "lon": 78.4385864840313, "alt_km": 416.663960436199, "timestamp": "2025-12-06T11:28:09.785557+00:00", "meta": {"OBJECT_NAME": "STARLINK-35648", "OBJECT_ID": "2025-262AC", "EPOCH": "2025-12-05T22:00:03.000096", "MEAN_MOTION": 15.5059975, "ECCENTRICITY": 0.00014274, "INCLINATION": 43.0004, "RA_OF_ASC_NODE": 110.9054, "ARG_OF_PERICENTER": 285.006, "MEAN_ANOMALY": 141.3572, "EPHEMERIS_TYPE": 0, "CLASSIFICATION_TYPE": "U", "NORAD_CAT_ID": 66482, "ELEMENT_SET_NO": 999, "REV_AT_EPOCH": 438, "BSTAR": -0.00095844876, "MEAN_MOTION_DOT": -0.00056208, "MEAN_MOTION_DDOT": 0}, "tle": {"line1": "1 66482U 25262AC  25339.91670139 -.00056208  00000+0 -95845-3 0  9997", "line2": "2 66482  43.0004 110.9054 0001427 285.0060 141.3572 15.50599750  4388"}}, "geometry": {"type": "Point", "coordinates": [78.4385864840313, -24.43630174382811]}}, {"type": "Feature", "properties": {"norad_id": 66483, "name": "STARLINK-35654", "group": "last-30-days", "lat": -23.292475872259562, "lon": 80.10131552531878, "alt_km": 416.6743658829819, "timestamp": "2025-12-06T11:28:09.785573+00:00", "meta": {"OBJECT_NAME": "STARLINK-35654", "OBJECT_ID": "2025-262AD", "EPOCH": "2025-12-05T22:00:03.000096", "MEAN_MOTION": 15.50637505, "ECCENTRICITY": 0.00012786, "INCLINATION": 43.0005, "RA_OF_ASC_NODE": 110.9002, "ARG_OF_PERICENTER": 292.7975, "MEAN_ANOMALY": 135.4604, "EPHEMERIS_TYPE": 0, "CLASSIFICATION_TYPE": "U", "NORAD_CAT_ID": 66483, "ELEMENT_SET_NO": 999, "REV_AT_EPOCH": 454, "BSTAR": -0.0018695201, "MEAN_MOTION_DOT": -0.00108732, "MEAN_MOTION_DDOT": 0}, "tle": {"line1": "1 66483U 25262AD  25339.91670139 -.00108732  00000+0 -18695-2 0  9995", "line2": "2 66483  43.0005 110.9002 0001278 292.7975 135.4604 15.50637505  4546"}}, "geometry": {"type": "Point", "coordinates": [80.10131552531878, -23.292475872259562]}}, {"type": "Feature", "properties": {"norad_id": 66484, "name": "STARLINK-35371", "group": "last-30-days", "lat": -22.119655241178048, "lon": 81.75227698208319, "alt_km": 416.5994922615191, "timestamp": "2025-12-06T11:28:09.785589+00:00", "meta": {"OBJECT_NAME": "STARLINK-35371", "OBJECT_ID": "2025-262AE", "EPOCH": "2025-12-05T22:00:03.000096", "MEAN_MOTION": 15.50616019, "ECCENTRICITY": 0.00015275, "INCLINATION": 43.0002, "RA_OF_ASC_NODE": 110.896, "ARG_OF_PERICENTER": 278.6063, "MEAN_ANOMALY": 151.5925, "EPHEMERIS_TYPE": 0, "CLASSIFICATION_TYPE": "U", "NORAD_CAT_ID": 66484, "ELEMENT_SET_NO": 999, "REV_AT_EPOCH": 454, "BSTAR": -0.0015097648, "MEAN_MOTION_DOT": -0.0008804, "MEAN_MOTION_DDOT": 0}, "tle": {"line1": "1 66484U 25262AE  25339.91670139 -.00088040  00000+0 -15098-2 0  9999", "line2": "2 66484  43.0002 110.8960 0001527 278.6063 151.5925 15.50616019  4546"}}, "geometry": {"type": "Point", "coordinates": [81.75227698208319, -22.119655241178048]}}, {"type": "Feature", "properties": {"norad_id": 66485, "name": "STARLINK-34774", "group": "last-30-days", "lat": -0.7896342422734263, "lon": -17.298099416027426, "alt_km": 392.07488509978066, "timestamp": "2025-12-06T11:28:09.785605+00:00", "meta": {"OBJECT_NAME": "STARLINK-34774", "OBJECT_ID": "2025-263A", "EPOCH": "2025-12-05T22:00:03.000096", "MEAN_MOTION": 15.60900425, "ECCENTRICITY": 0.00014568, "INCLINATION": 42.9996, "RA_OF_ASC_NODE": 165.1827, "ARG_OF_PERICENTER": 267.933, "MEAN_ANOMALY": 358.3654, "EPHEMERIS_TYPE": 0, "CLASSIFICATION_TYPE": "U", "NORAD_CAT_ID": 66485, "ELEMENT_SET_NO": 999, "REV_AT_EPOCH": 453, "BSTAR": -0.026177975, "MEAN_MOTION_DOT": -0.01979707, "MEAN_MOTION_DDOT": 0}, "tle": {"line1": "1 66485U 25263A   25339.91670139 -.01979707  00000+0 -26178-1 0  9991", "line2": "2 66485  42.9996 165.1827 0001456 267.9330 358.3654 15.60900425  4534"}}, "geometry": {"type": "Point", "coordinates": [-17.298099416027426, -0.7896342422734263]}}, {"type": "Feature", "properties": {"norad_id": 66486, "name": "STARLINK-34844", "group": "last-30-days", "lat": -2.094485864060592, "lon": -15.902087747860879, "alt_km": 392.1856622172163, "timestamp": "2025-12-06T11:28:09.785622+00:00", "meta": {"OBJECT_NAME": "STARLINK-34844", "OBJECT_ID": "2025-263B", "EPOCH": "2025-12-05T22:00:03.000096", "MEAN_MOTION": 15.60899654, "ECCENTRICITY": 0.00016036, "INCLINATION": 42.9994, "RA_OF_ASC_NODE": 165.1769, "ARG_OF_PERICENTER": 267.6727, "MEAN_ANOMALY": 0.5428, "EPHEMERIS_TYPE": 0, "CLASSIFICATION_TYPE": "U", "NORAD_CAT_ID": 66486, "ELEMENT_SET_NO": 999, "REV_AT_EPOCH": 449, "BSTAR": -0.026169395, "MEAN_MOTION_DOT": -0.01979194, "MEAN_MOTION_DDOT": 0}, "tle": {"line1": "1 66486U 25263B   25339.91670139 -.01979194  00000+0 -26169-1 0  9992", "line2": "2 66486  42.9994 165.1769 0001603 267.6727   0.5428 15.60899654  4490"}}, "geometry": {"type": "Point", "coordinates": [-15.902087747860879, -2.094485864060592]}}, {"type": "Feature", "properties": {"norad_id": 66487, "name": "STARLINK-34733", "group": "last-30-days", "lat": -3.4001194090094153, "lon": -14.499736339962366, "alt_km": 392.3010650525084, "timestamp": "2025-12-06T11:28:09.785641+00:00", "meta": {"OBJECT_NAME": "STARLINK-34733", "OBJECT_ID": "2025-263C", "EPOCH": "2025-12-05T22:00:03.000096", "MEAN_MOTION": 15.60901402, "ECCENTRICITY": 0.00015762, "INCLINATION": 42.9993, "RA_OF_ASC_NODE": 165.1729, "ARG_OF_PERICENTER": 267.6572, "MEAN_ANOMALY": 2.4736, "EPHEMERIS_TYPE": 0, "CLASSIFICATION_TYPE": "U", "NORAD_CAT_ID": 66487, "ELEMENT_SET_NO": 999, "REV_AT_EPOCH": 453, "BSTAR": -0.02618316, "MEAN_MOTION_DOT": -0.01980206, "MEAN_MOTION_DDOT": 0}, "tle": {"line1": "1 66487U 25263C   25339.91670139 -.01980206  00000+0 -26183-1 0  9995", "line2": "2 66487  42.9993 165.1729 0001576 267.6572   2.4736 15.60901402  4536"}}, "geometry": {"type": "Point", "coordinates": [-14.499736339962366, -3.4001194090094153]}}, {"type": "Feature", "properties": {"norad_id": 66488, "name": "STARLINK-35515", "group": "last-30-days", "lat": -4.703107565328955, "lon": -13.095431200711193, "alt_km": 392.43499906798206, "timestamp": "2025-12-06T11:28:09.785662+00:00", "meta": {"OBJECT_NAME": "STARLINK-35515", "OBJECT_ID": "2025-263D", "EPOCH": "2025-12-05T22:00:03.000096", "MEAN_MOTION": 15.6090119, "ECCENTRICITY": 0.00015759, "INCLINATION": 42.9994, "RA_OF_ASC_NODE": 165.1677, "ARG_OF_PERICENTER": 268.4269, "MEAN_ANOMALY": 3.6208, "EPHEMERIS_TYPE": 0, "CLASSIFICATION_TYPE": "U", "NORAD_CAT_ID": 66488, "ELEMENT_SET_NO": 999, "REV_AT_EPOCH": 453, "BSTAR": -0.026177546, "MEAN_MOTION_DOT": -0.01979818, "MEAN_MOTION_DDOT": 0}, "tle": {"line1": "1 66488U 25263D   25339.91670139 -.01979818  00000+0 -26178-1 0  9997", "line2": "2 66488  42.9994 165.1677 0001575 268.4269   3.6208 15.60901190  4532"}}, "geometry": {"type": "Point", "coordinates": [-13.095431200711193, -4.703107565328955]}}, {"type": "Feature", "properties": {"norad_id": 66489, "name": "STARLINK-35696", "group": "last-30-days", "lat": -6.002857395903712, "lon": -11.686164559283394, "alt_km": 392.55394169234114, "timestamp": "2025-12-06T11:28:09.785687+00:00", "meta": {"OBJECT_NAME": "STARLINK-35696", "OBJECT_ID": "2025-263E", "EPOCH": "2025-12-05T22:00:03.000096", "MEAN_MOTION": 15.60899028, "ECCENTRICITY": 0.00016027, "INCLINATION": 42.9994, "RA_OF_ASC_NODE": 165.1626, "ARG_OF_PERICENTER": 268.8321, "MEAN_ANOMALY": 5.1349, "EPHEMERIS_TYPE": 0, "CLASSIFICATION_TYPE": "U", "NORAD_CAT_ID": 66489, "ELEMENT_SET_NO": 999, "REV_AT_EPOCH": 453, "BSTAR": -0.026159624, "MEAN_MOTION_DOT": -0.01978502, "MEAN_MOTION_DDOT": 0}, "tle": {"line1": "1 66489U 25263E   25339.91670139 -.01978502  00000+0 -26160-1 0  9998", "line2": "2 66489  42.9994 165.1626 0001602 268.8321   5.1349 15.60899028  4530"}}, "geometry": {"type": "Point", "coordinates": [-11.686164559283394, -6.002857395903712]}}, {"type": "Feature", "properties": {"norad_id": 66490, "name": "STARLINK-35693", "group": "last-30-days", "lat": -7.300367870980516, "lon": -10.26792477394186, "alt_km": 392.5408640282967, "timestamp": "2025-12-06T11:28:09.785698+00:00", "meta": {"OBJECT_NAME": "STARLINK-35693", "OBJECT_ID": "2025-263F", "EPOCH": "2025-12-05T22:00:03.000096", "MEAN_MOTION": 15.60899566, "ECCENTRICITY": 0.0001592, "INCLINATION": 42.9995, "RA_OF_ASC_NODE": 165.1582, "ARG_OF_PERICENTER": 264.8542, "MEAN_ANOMALY": 11.029, "EPHEMERIS_TYPE": 0, "CLASSIFICATION_TYPE": "U", "NORAD_CAT_ID": 66490, "ELEMENT_SET_NO": 999, "REV_AT_EPOCH": 453, "BSTAR": -0.026149942, "MEAN_MOTION_DOT": -0.01977888, "MEAN_MOTION_DDOT": 0}, "tle": {"line1": "1 66490U 25263F   25339.91670139 -.01977888  00000+0 -26150-1 0  9995", "line2": "2 66490  42.9995 165.1582 0001592 264.8542  11.0290 15.60899566  4531"}}, "geometry": {"type": "Point", "coordinates": [-10.26792477394186, -7.300367870980516]}}, {"type": "Feature", "properties": {"norad_id": 66491, "name": "STARLINK-35663", "group": "last-30-days", "lat": -9.879224843505963, "lon": -7.408264415474961, "alt_km": 392.7595972573017, "timestamp": "2025-12-06T11:28:09.785711+00:00", "meta": {"OBJECT_NAME": "STARLINK-35663", "OBJECT_ID": "2025-263G", "EPOCH": "2025-12-05T22:00:03.000096", "MEAN_MOTION": 15.60896945, "ECCENTRICITY": 0.00016171, "INCLINATION": 42.9993, "RA_OF_ASC_NODE": 165.1483, "ARG_OF_PERICENTER": 266.0943, "MEAN_ANOMALY": 13.623, "EPHEMERIS_TYPE": 0, "CLASSIFICATION_TYPE": "U", "NORAD_CAT_ID": 66491, "ELEMENT_SET_NO": 999, "REV_AT_EPOCH": 453, "BSTAR": -0.026086002, "MEAN_MOTION_DOT": -0.01973483, "MEAN_MOTION_DDOT": 0}, "tle": {"line1": "1 66491U 25263G   25339.91670139 -.01973483  00000+0 -26086-1 0  9991", "line2": "2 66491  42.9993 165.1483 0001617 266.0943  13.6230 15.60896945  4537"}}, "geometry": {"type": "Point", "coordinates": [-7.408264415474961, -9.879224843505963]}}]}